[Satellite]
VERSION=1.1
NAME=HAMSAT (VO-52)
NICKNAME=VO-52
TLE1=1 28650U 05017B   11059.86457681  .00000033  00000-0  10544-4 0  7302
TLE2=2 28650  97.6572 107.7781 0027606 154.4446 205.8106 14.81919572314703
